ONEWEB-0525             
1 54143U 22138AG  23254.43340149  .00015226  00000+0  37978-1 0  9997
2 54143  87.9266 145.9271 0002552  95.4092 264.7332 13.19649397 43645
ONEWEB-0526             
1 54144U 22138AH  23254.23911267  .00000058  00000+0  11257-3 0  9992
2 54144  87.9267 145.9659 0001965  77.3974 282.7379 13.19730009 43598
ONEWEB-0529             
1 54145U 22138AJ  23254.39389673 -.00000003  00000+0 -38629-4 0  9995
2 54145  87.9267 145.9339 0002164  84.8611 275.2769 13.19722113 43639
ONEWEB-0531             
1 54146U 22138AK  23254.54651098  .00000085  00000+0  17761-3 0  9997
2 54146  87.9228 115.4092 0002066  46.8412 313.2894 13.20773479 46035
ONEWEB-0535             
1 54147U 22138AL  23254.42706763  .00000097  00000+0  20958-3 0  9990
2 54147  87.9266 145.9284 0001628  67.4254 292.7051 13.19722731 43659
ONEWEB-0536             
1 54148U 22138AM  23254.53389816  .00000052  00000+0  96397-4 0  9991
2 54148  87.9229 115.4614 0001279  37.5981 322.5242 13.20772797 46022
GSLV R/B                
1 54149U 22138AN  23254.55518939  .00002148  00000+0  22551-3 0  9992
2 54149  87.3782 110.0481 0023646 195.7737 164.2756 14.88822852 48152
ONEWEB-0527             
1 54642U 22166A   23254.60808764  .00000070  00000+0  13838-3 0  9995
2 54642  87.9148  85.0351 0001890  83.1921 276.9428 13.21827221 38619
