<?xml version="1.0" encoding="UTF-8"?>
<ndm xmlns:xsi="http://www.w3.org/2001/XMLSchema-instance" xsi:noNamespaceSchemaLocation="https://sanaregistry.org/r/ndmxml_unqualified/ndmxml-2.0.0-master-2.0.xsd">
<omm id="CCSDS_OMM_VERS" version="2.0">
<header><CREATION_DATE/><ORIGINATOR/></header><body><segment><metadata><OBJECT_NAME>ONEWEB-0525</OBJECT_NAME><OBJECT_ID>2022-138AG</OBJECT_ID><CENTER_NAME>EARTH</CENTER_NAME><REF_FRAME>TEME</REF_FRAME><TIME_SYSTEM>UTC</TIME_SYSTEM><MEAN_ELEMENT_THEORY>SGP4</MEAN_ELEMENT_THEORY></metadata><data><meanElements><EPOCH>2023-09-11T10:24:05.888736</EPOCH><MEAN_MOTION>13.19649397</MEAN_MOTION><ECCENTRICITY>.0002552</ECCENTRICITY><INCLINATION>87.9266</INCLINATION><RA_OF_ASC_NODE>145.9271</RA_OF_ASC_NODE><ARG_OF_PERICENTER>95.4092</ARG_OF_PERICENTER><MEAN_ANOMALY>264.7332</MEAN_ANOMALY></meanElements><tleParameters><EPHEMERIS_TYPE>0</EPHEMERIS_TYPE><CLASSIFICATION_TYPE>U</CLASSIFICATION_TYPE><NORAD_CAT_ID>54143</NORAD_CAT_ID><ELEMENT_SET_NO>999</ELEMENT_SET_NO><REV_AT_EPOCH>4364</REV_AT_EPOCH><BSTAR>.37978E-1</BSTAR><MEAN_MOTION_DOT>.15226E-3</MEAN_MOTION_DOT><MEAN_MOTION_DDOT>0</MEAN_MOTION_DDOT></tleParameters></data></segment></body></omm>
<omm id="CCSDS_OMM_VERS" version="2.0">
<header><CREATION_DATE/><ORIGINATOR/></header><body><segment><metadata><OBJECT_NAME>ONEWEB-0526</OBJECT_NAME><OBJECT_ID>2022-138AH</OBJECT_ID><CENTER_NAME>EARTH</CENTER_NAME><REF_FRAME>TEME</REF_FRAME><TIME_SYSTEM>UTC</TIME_SYSTEM><MEAN_ELEMENT_THEORY>SGP4</MEAN_ELEMENT_THEORY></metadata><data><meanElements><EPOCH>2023-09-11T05:44:19.334688</EPOCH><MEAN_MOTION>13.19730009</MEAN_MOTION><ECCENTRICITY>.0001965</ECCENTRICITY><INCLINATION>87.9267</INCLINATION><RA_OF_ASC_NODE>145.9659</RA_OF_ASC_NODE><ARG_OF_PERICENTER>77.3974</ARG_OF_PERICENTER><MEAN_ANOMALY>282.7379</MEAN_ANOMALY></meanElements><tleParameters><EPHEMERIS_TYPE>0</EPHEMERIS_TYPE><CLASSIFICATION_TYPE>U</CLASSIFICATION_TYPE><NORAD_CAT_ID>54144</NORAD_CAT_ID><ELEMENT_SET_NO>999</ELEMENT_SET_NO><REV_AT_EPOCH>4359</REV_AT_EPOCH><BSTAR>.11257E-3</BSTAR><MEAN_MOTION_DOT>.58E-6</MEAN_MOTION_DOT><MEAN_MOTION_DDOT>0</MEAN_MOTION_DDOT></tleParameters></data></segment></body></omm>
<omm id="CCSDS_OMM_VERS" version="2.0">
<header><CREATION_DATE/><ORIGINATOR/></header><body><segment><metadata><OBJECT_NAME>ONEWEB-0529</OBJECT_NAME><OBJECT_ID>2022-138AJ</OBJECT_ID><CENTER_NAME>EARTH</CENTER_NAME><REF_FRAME>TEME</REF_FRAME><TIME_SYSTEM>UTC</TIME_SYSTEM><MEAN_ELEMENT_THEORY>SGP4</MEAN_ELEMENT_THEORY></metadata><data><meanElements><EPOCH>2023-09-11T09:27:12.677472</EPOCH><MEAN_MOTION>13.19722113</MEAN_MOTION><ECCENTRICITY>.0002164</ECCENTRICITY><INCLINATION>87.9267</INCLINATION><RA_OF_ASC_NODE>145.9339</RA_OF_ASC_NODE><ARG_OF_PERICENTER>84.8611</ARG_OF_PERICENTER><MEAN_ANOMALY>275.2769</MEAN_ANOMALY></meanElements><tleParameters><EPHEMERIS_TYPE>0</EPHEMERIS_TYPE><CLASSIFICATION_TYPE>U</CLASSIFICATION_TYPE><NORAD_CAT_ID>54145</NORAD_CAT_ID><ELEMENT_SET_NO>999</ELEMENT_SET_NO><REV_AT_EPOCH>4363</REV_AT_EPOCH><BSTAR>-.38629E-4</BSTAR><MEAN_MOTION_DOT>-.3E-7</MEAN_MOTION_DOT><MEAN_MOTION_DDOT>0</MEAN_MOTION_DDOT></tleParameters></data></segment></body></omm>
<omm id="CCSDS_OMM_VERS" version="2.0">
<header><CREATION_DATE/><ORIGINATOR/></header><body><segment><metadata><OBJECT_NAME>ONEWEB-0531</OBJECT_NAME><OBJECT_ID>2022-138AK</OBJECT_ID><CENTER_NAME>EARTH</CENTER_NAME><REF_FRAME>TEME</REF_FRAME><TIME_SYSTEM>UTC</TIME_SYSTEM><MEAN_ELEMENT_THEORY>SGP4</MEAN_ELEMENT_THEORY></metadata><data><meanElements><EPOCH>2023-09-11T13:06:58.548672</EPOCH><MEAN_MOTION>13.20773479</MEAN_MOTION><ECCENTRICITY>.0002066</ECCENTRICITY><INCLINATION>87.9228</INCLINATION><RA_OF_ASC_NODE>115.4092</RA_OF_ASC_NODE><ARG_OF_PERICENTER>46.8412</ARG_OF_PERICENTER><MEAN_ANOMALY>313.2894</MEAN_ANOMALY></meanElements><tleParameters><EPHEMERIS_TYPE>0</EPHEMERIS_TYPE><CLASSIFICATION_TYPE>U</CLASSIFICATION_TYPE><NORAD_CAT_ID>54146</NORAD_CAT_ID><ELEMENT_SET_NO>999</ELEMENT_SET_NO><REV_AT_EPOCH>4603</REV_AT_EPOCH><BSTAR>.17761E-3</BSTAR><MEAN_MOTION_DOT>.85E-6</MEAN_MOTION_DOT><MEAN_MOTION_DDOT>0</MEAN_MOTION_DDOT></tleParameters></data></segment></body></omm>
<omm id="CCSDS_OMM_VERS" version="2.0">
<header><CREATION_DATE/><ORIGINATOR/></header><body><segment><metadata><OBJECT_NAME>ONEWEB-0535</OBJECT_NAME><OBJECT_ID>2022-138AL</OBJECT_ID><CENTER_NAME>EARTH</CENTER_NAME><REF_FRAME>TEME</REF_FRAME><TIME_SYSTEM>UTC</TIME_SYSTEM><MEAN_ELEMENT_THEORY>SGP4</MEAN_ELEMENT_THEORY></metadata><data><meanElements><EPOCH>2023-09-11T10:14:58.643232</EPOCH><MEAN_MOTION>13.19722731</MEAN_MOTION><ECCENTRICITY>.0001628</ECCENTRICITY><INCLINATION>87.9266</INCLINATION><RA_OF_ASC_NODE>145.9284</RA_OF_ASC_NODE><ARG_OF_PERICENTER>67.4254</ARG_OF_PERICENTER><MEAN_ANOMALY>292.7051</MEAN_ANOMALY></meanElements><tleParameters><EPHEMERIS_TYPE>0</EPHEMERIS_TYPE><CLASSIFICATION_TYPE>U</CLASSIFICATION_TYPE><NORAD_CAT_ID>54147</NORAD_CAT_ID><ELEMENT_SET_NO>999</ELEMENT_SET_NO><REV_AT_EPOCH>4365</REV_AT_EPOCH><BSTAR>.20958E-3</BSTAR><MEAN_MOTION_DOT>.97E-6</MEAN_MOTION_DOT><MEAN_MOTION_DDOT>0</MEAN_MOTION_DDOT></tleParameters></data></segment></body></omm>
<omm id="CCSDS_OMM_VERS" version="2.0">
<header><CREATION_DATE/><ORIGINATOR/></header><body><segment><metadata><OBJECT_NAME>ONEWEB-0536</OBJECT_NAME><OBJECT_ID>2022-138AM</OBJECT_ID><CENTER_NAME>EARTH</CENTER_NAME><REF_FRAME>TEME</REF_FRAME><TIME_SYSTEM>UTC</TIME_SYSTEM><MEAN_ELEMENT_THEORY>SGP4</MEAN_ELEMENT_THEORY></metadata><data><meanElements><EPOCH>2023-09-11T12:48:48.801024</EPOCH><MEAN_MOTION>13.20772797</MEAN_MOTION><ECCENTRICITY>.0001279</ECCENTRICITY><INCLINATION>87.9229</INCLINATION><RA_OF_ASC_NODE>115.4614</RA_OF_ASC_NODE><ARG_OF_PERICENTER>37.5981</ARG_OF_PERICENTER><MEAN_ANOMALY>322.5242</MEAN_ANOMALY></meanElements><tleParameters><EPHEMERIS_TYPE>0</EPHEMERIS_TYPE><CLASSIFICATION_TYPE>U</CLASSIFICATION_TYPE><NORAD_CAT_ID>54148</NORAD_CAT_ID><ELEMENT_SET_NO>999</ELEMENT_SET_NO><REV_AT_EPOCH>4602</REV_AT_EPOCH><BSTAR>.96397E-4</BSTAR><MEAN_MOTION_DOT>.52E-6</MEAN_MOTION_DOT><MEAN_MOTION_DDOT>0</MEAN_MOTION_DDOT></tleParameters></data></segment></body></omm>
<omm id="CCSDS_OMM_VERS" version="2.0">
<header><CREATION_DATE/><ORIGINATOR/></header><body><segment><metadata><OBJECT_NAME>GSLV R/B</OBJECT_NAME><OBJECT_ID>2022-138AN</OBJECT_ID><CENTER_NAME>EARTH</CENTER_NAME><REF_FRAME>TEME</REF_FRAME><TIME_SYSTEM>UTC</TIME_SYSTEM><MEAN_ELEMENT_THEORY>SGP4</MEAN_ELEMENT_THEORY></metadata><data><meanElements><EPOCH>2023-09-11T13:19:28.363296</EPOCH><MEAN_MOTION>14.88822852</MEAN_MOTION><ECCENTRICITY>.0023646</ECCENTRICITY><INCLINATION>87.3782</INCLINATION><RA_OF_ASC_NODE>110.0481</RA_OF_ASC_NODE><ARG_OF_PERICENTER>195.7737</ARG_OF_PERICENTER><MEAN_ANOMALY>164.2756</MEAN_ANOMALY></meanElements><tleParameters><EPHEMERIS_TYPE>0</EPHEMERIS_TYPE><CLASSIFICATION_TYPE>U</CLASSIFICATION_TYPE><NORAD_CAT_ID>54149</NORAD_CAT_ID><ELEMENT_SET_NO>999</ELEMENT_SET_NO><REV_AT_EPOCH>4815</REV_AT_EPOCH><BSTAR>.22551E-3</BSTAR><MEAN_MOTION_DOT>.2148E-4</MEAN_MOTION_DOT><MEAN_MOTION_DDOT>0</MEAN_MOTION_DDOT></tleParameters></data></segment></body></omm>
<omm id="CCSDS_OMM_VERS" version="2.0">
<header><CREATION_DATE/><ORIGINATOR/></header><body><segment><metadata><OBJECT_NAME>ONEWEB-0527</OBJECT_NAME><OBJECT_ID>2022-166A</OBJECT_ID><CENTER_NAME>EARTH</CENTER_NAME><REF_FRAME>TEME</REF_FRAME><TIME_SYSTEM>UTC</TIME_SYSTEM><MEAN_ELEMENT_THEORY>SGP4</MEAN_ELEMENT_THEORY></metadata><data><meanElements><EPOCH>2023-09-11T14:35:38.772096</EPOCH><MEAN_MOTION>13.21827221</MEAN_MOTION><ECCENTRICITY>.000189</ECCENTRICITY><INCLINATION>87.9148</INCLINATION><RA_OF_ASC_NODE>85.0351</RA_OF_ASC_NODE><ARG_OF_PERICENTER>83.1921</ARG_OF_PERICENTER><MEAN_ANOMALY>276.9428</MEAN_ANOMALY></meanElements><tleParameters><EPHEMERIS_TYPE>0</EPHEMERIS_TYPE><CLASSIFICATION_TYPE>U</CLASSIFICATION_TYPE><NORAD_CAT_ID>54642</NORAD_CAT_ID><ELEMENT_SET_NO>999</ELEMENT_SET_NO><REV_AT_EPOCH>3861</REV_AT_EPOCH><BSTAR>.13838E-3</BSTAR><MEAN_MOTION_DOT>.7E-6</MEAN_MOTION_DOT><MEAN_MOTION_DDOT>0</MEAN_MOTION_DDOT></tleParameters></data></segment></body></omm>

</ndm>
